GSAT-18                 
1 41793U 16060A   26162.70915645 -.00000060  00000+0  00000+0 0  9996
2 41793   0.0486 109.9560 0005547 321.6234 157.7550  1.00270872 35472
SKY MUSTER 2 (NBN1B)    
1 41794U 16060B   26162.72310984 -.00000228  00000+0  00000+0 0  9990
2 41794   0.0181 330.3390 0001375 108.9092 225.9445  1.00270247 35465
HIMAWARI-9              
1 41836U 16064A   26162.72232984 -.00000258  00000+0  00000+0 0  9997
2 41836   0.0483 150.8117 0000786 345.7408 164.3304  1.00271004 35154
SHIJIAN-17 (SJ-17)      
1 41838U 16065A   26162.57618714  .00000046  00000+0  00000+0 0  9996
2 41838   5.7379  72.6706 0001784  27.9307 250.9664  0.99853586 35141
GOES 16                 
1 41866U 16071A   26162.67376016 -.00000074  00000+0  00000+0 0  9993
2 41866   0.3260  85.5664 0000269 302.7889   9.5344  1.00270209 35044
TIANLIAN 1-04           
1 41869U 16072A   26162.65824677  .00000047  00000+0  00000+0 0  9995
2 41869   0.8542  82.9519 0042070  89.7091 141.1116  1.00270404 35247
WGS F8 (USA 272)        
1 41879U 16075A   26161.81336286 -.00000185  00000+0  00000+0 0  9994
2 41879   0.0052 354.0386 0000215 337.6670  10.0750  1.00269780 34752
FENGYUN 4A              
1 41882U 16077A   26162.71903648 -.00000341  00000+0  00000+0 0  9996
2 41882   2.3075  80.3541 0008532 151.8402  50.5055  1.00271838 34874
ECHOSTAR 19             
1 41893U 16079A   26162.53267728 -.00000122  00000+0  00000+0 0  9999
2 41893   0.0183   2.2153 0001230  74.8390 277.4959  1.00270624 34641
JCSAT-110A (JCSAT-15)   
1 41903U 16082A   26161.79656301 -.00000333  00000+0  00000+0 0  9995
2 41903   0.0175 336.1538 0000513 148.6067 171.2267  1.00272705 34694
STAR ONE D1             
1 41904U 16082B   26162.53527729 -.00000194  00000+0  00000+0 0  9995
2 41904   0.0124  45.1764 0002287  50.6276 272.7783  1.00272261 34711
TJS-2                   
1 41911U 17001A   26162.73881057  .00000009  00000+0  00000+0 0  9998
2 41911   0.8187  85.4000 0000540  37.5812 109.6282  1.00272711 34662
SBIRS GEO-4 (USA 273)   
1 41937U 17004A   26162.69863360  .00000138  00000+0  00000+0 0  9994
2 41937   2.2321  43.1147 0001989  32.2209  97.1169  1.00271748 34540
HISPASAT 36W-1          
1 41942U 17006A   26162.68736690 -.00000228  00000+0  00000+0 0  9997
2 41942   0.0064 283.4255 0001071 160.8858  27.1864  1.00271863 34199
TELKOM 3S               
1 41944U 17007A   26162.67670758  .00000000  00000+0  00000+0 0  9998
2 41944   0.0202   2.8830 0002028  85.1548 173.5734  1.00266035 34080
INTELSAT 32E (IS-32E)   
1 41945U 17007B   26162.25718881 -.00000252  00000+0  00000+0 0  9993
2 41945   0.0031  63.2625 0000534 226.5375  19.2132  1.00268917 34161
ECHOSTAR 23             
1 42070U 17014A   26160.03496279  .00000000  00000+0  00000+0 0  9999
2 42070   0.0199 341.1115 0001490  88.1607  90.8350  1.00276522 33842
WGS F9 (USA 275)        
1 42075U 17016A   26162.26435713 -.00000079  00000+0  00000+0 0  9996
2 42075   0.0098 295.5794 0000057 332.8343  74.3696  1.00270955 33837
SES-10                  
1 42432U 17017A   26161.25535291 -.00000255  00000+0  00000+0 0  9990
2 42432   0.0225  36.2587 0002765  50.3805 197.0045  1.00268899 33687
CHINASAT 16 (SJ-13)     
1 42662U 17018A   26162.75888277 -.00000336  00000+0  00000+0 0  9997
2 42662   0.0980  91.3752 0003926 138.4966  53.9780  1.00270081 33695
KOREASAT 7              
1 42691U 17023A   26162.75337663 -.00000345  00000+0  00000+0 0  9993
2 42691   0.0215   3.8667 0000545  72.8250 210.4986  1.00269985 33310
SGDC                    
1 42692U 17023B   26162.48626840 -.00000233  00000+0  00000+0 0  9998
2 42692   0.0374  74.2300 0002651  16.6467 269.1651  1.00270538 33348
GSAT-9                  
1 42695U 17024A   26162.71907816 -.00000270  00000+0  00000+0 0  9994
2 42695   0.0050 346.6989 0002581  89.2905 180.2915  1.00271462 33248
INMARSAT 5-F4           
1 42698U 17025A   26160.13918432  .00000092  00000+0  00000+0 0  9999
2 42698   0.0177 351.8920 0000065 193.2614 178.9583  1.00273429 33196
SES-15                  
1 42709U 17026A   26159.53201694  .00000076  00000+0  00000+0 0  9992
2 42709   0.0197 332.0701 0000516  88.0806 259.1449  1.00270105  7343
QZS-2 (MICHIBIKI-2)     
1 42738U 17028A   26160.53939596 -.00000147  00000+0  00000+0 0  9997
2 42738  39.4388 243.2674 0760581 269.1776  81.0235  1.00285994  7547
VIASAT-2                
1 42740U 17029A   26160.11415045 -.00000249  00000+0  00000+0 0  9996
2 42740   0.0187 291.3466 0000171 135.2981 162.0599  1.00271449 33123
EUTELSAT 172B           
1 42741U 17029B   26162.65720676  .00000011  00000+0  00000+0 0  9993
2 42741   0.0449 149.6549 0000212  83.1334  75.8186  1.00272141 33685
GSAT-19                 
1 42747U 17031A   26160.49389234  .00000142  00000+0  00000+0 0  9998
2 42747   0.1124  90.5949 0006874 350.9443  41.9894  1.00271642 33074
ECHOSTAR 21             
1 42749U 17032A   26162.69646692  .00000080  00000+0  00000+0 0  9990
2 42749   1.7716 355.3218 0002120  92.1077  73.6001  1.00271685 33045
BULGARIASAT-1           
1 42801U 17038A   26160.05701573  .00000027  00000+0  00000+0 0  9994
2 42801   0.0199 281.2746 0003429 171.9526 186.6324  1.00269313 32768
HELLAS-SAT 3            
1 42814U 17040A   26159.99308707  .00000169  00000+0  00000+0 0  9991
2 42814   0.0579  55.5659 0004626 354.8875 243.4447  1.00273758 32720
